IRIDIUM 159             
1 43578U 18061K   25331.85428727  .00000004  00000+0 -57396-5 0  9999
2 43578  86.3968 140.8856 0002024  87.9206 272.2222 14.34217702384523
IRIDIUM 180             
1 43922U 19002A   25332.06309054  .00000372  00000+0  12581-3 0  9995
2 43922  86.3963  77.6763 0002017  91.0660 269.0767 14.34221817360161
IRIDIUM 176             
1 43923U 19002B   25332.04254341  .00000823  00000+0  12670-3 0  9992
2 43923  86.6090  77.6579 0001943  98.2390 261.9048 14.72249713369650
IRIDIUM 168             
1 43924U 19002C   25332.05674905  .00000190  00000+0  60759-4 0  9995
2 43924  86.3963  77.7505 0001973  94.2366 265.9055 14.34218607360142
IRIDIUM 173             
1 43925U 19002D   25331.83476000  .00000383  00000+0  12960-3 0  9991
2 43925  86.3964  77.7405 0001925  95.4865 264.6550 14.34221243360097
IRIDIUM 169             
1 43926U 19002E   25332.09694514  .00000321  00000+0  98561-4 0  9997
2 43926  86.4205 109.2809 0000931 115.6723 244.4572 14.38602789361318
IRIDIUM 172             
1 43927U 19002F   25332.03772065  .00000304  00000+0  10163-3 0  9992
2 43927  86.3962  77.6628 0002026  90.0109 270.1319 14.34221252360138
IRIDIUM 175             
1 43928U 19002G   25332.10577051  .00001128  00000+0  17487-3 0  9990
2 43928  86.1517  20.8642 0002943 104.3472 255.8071 14.72253434369659
